[{"OBJECT_NAME":"CENTISPACE-1 S8","OBJECT_ID":"2025-007C","EPOCH":"2026-03-09T22:54:04.859424","MEAN_MOTION":13.83253817,"ECCENTRICITY":0.00084738,"INCLINATION":54.9839,"RA_OF_ASC_NODE":278.5467,"ARG_OF_PERICENTER":264.7719,"MEAN_ANOMALY":95.2272,"EPHEMERIS_TYPE":0,"CLASSIFICATION_TYPE":"U","NORAD_CAT_ID":62577,"ELEMENT_SET_NO":999,"REV_AT_EPOCH":6102,"BSTAR":9.9080577e-5,"MEAN_MOTION_DOT":-3.2e-7,"MEAN_MOTION_DDOT":0},{"OBJECT_NAME":"COSMOS 516","OBJECT_ID":"1972-066A","EPOCH":"2026-03-09T09:37:18.640416","MEAN_MOTION":13.77807707,"ECCENTRICITY":0.00569463,"INCLINATION":64.8091,"RA_OF_ASC_NODE":87.8017,"ARG_OF_PERICENTER":134.2292,"MEAN_ANOMALY":226.346,"EPHEMERIS_TYPE":0,"CLASSIFICATION_TYPE":"U","NORAD_CAT_ID":6154,"ELEMENT_SET_NO":999,"REV_AT_EPOCH":69417,"BSTAR":1.6509786e-5,"MEAN_MOTION_DOT":-7.2e-7,"MEAN_MOTION_DDOT":0}]
